CCSDS_OMM_VERS = 2.0
CREATION_DATE  = 
ORIGINATOR     = 

OBJECT_NAME    = COSMOS 2242
OBJECT_ID      = 1993-024A
CENTER_NAME    = EARTH
REF_FRAME      = TEME
TIME_SYSTEM    = UTC
MEAN_ELEMENT_THEORY = SGP/SGP4

EPOCH          = 2026-03-23T11:25:36.735168
MEAN_MOTION    = 14.96604604
ECCENTRICITY   = .0014915
INCLINATION    = 82.5153
RA_OF_ASC_NODE = 253.5257
ARG_OF_PERICENTER = 258.1234
MEAN_ANOMALY   = 101.8316

EPHEMERIS_TYPE = 0
CLASSIFICATION_TYPE = U
NORAD_CAT_ID   = 22626
ELEMENT_SET_NO = 999
REV_AT_EPOCH   = 78245
BSTAR          = .18855E-3
MEAN_MOTION_DOT = .2177E-4
MEAN_MOTION_DDOT = 0

CCSDS_OMM_VERS = 2.0
CREATION_DATE  = 
ORIGINATOR     = 

OBJECT_NAME    = SL-16 R/B
OBJECT_ID      = 1993-059B
CENTER_NAME    = EARTH
REF_FRAME      = TEME
TIME_SYSTEM    = UTC
MEAN_ELEMENT_THEORY = SGP/SGP4

EPOCH          = 2026-03-23T10:50:51.237888
MEAN_MOTION    = 14.17235215
ECCENTRICITY   = .0017714
INCLINATION    = 70.9929
RA_OF_ASC_NODE = 342.1067
ARG_OF_PERICENTER = 196.6336
MEAN_ANOMALY   = 163.4209

EPHEMERIS_TYPE = 0
CLASSIFICATION_TYPE = U
NORAD_CAT_ID   = 22803
ELEMENT_SET_NO = 999
REV_AT_EPOCH   = 68148
BSTAR          = .6195E-4
MEAN_MOTION_DOT = .77E-6
MEAN_MOTION_DDOT = 0

CCSDS_OMM_VERS = 2.0
CREATION_DATE  = 
ORIGINATOR     = 

OBJECT_NAME    = ARIANE 40 R/B
OBJECT_ID      = 1993-061H
CENTER_NAME    = EARTH
REF_FRAME      = TEME
TIME_SYSTEM    = UTC
MEAN_ELEMENT_THEORY = SGP/SGP4

EPOCH          = 2026-03-23T10:55:25.267584
MEAN_MOTION    = 14.32867917
ECCENTRICITY   = .000975
INCLINATION    = 98.4891
RA_OF_ASC_NODE = 151.0696
ARG_OF_PERICENTER = 239.5955
MEAN_ANOMALY   = 120.4266

EPHEMERIS_TYPE = 0
CLASSIFICATION_TYPE = U
NORAD_CAT_ID   = 22830
ELEMENT_SET_NO = 999
REV_AT_EPOCH   = 69607
BSTAR          = .96906E-4
MEAN_MOTION_DOT = .221E-5
MEAN_MOTION_DDOT = 0

CCSDS_OMM_VERS = 2.0
CREATION_DATE  = 
ORIGINATOR     = 

OBJECT_NAME    = COSMOS 2278
OBJECT_ID      = 1994-023A
CENTER_NAME    = EARTH
REF_FRAME      = TEME
TIME_SYSTEM    = UTC
MEAN_ELEMENT_THEORY = SGP/SGP4

EPOCH          = 2026-03-23T11:01:43.704768
MEAN_MOTION    = 14.14377428
ECCENTRICITY   = .0008936
INCLINATION    = 71.0534
RA_OF_ASC_NODE = 146.2917
ARG_OF_PERICENTER = 350.5898
MEAN_ANOMALY   = 9.5056

EPHEMERIS_TYPE = 0
CLASSIFICATION_TYPE = U
NORAD_CAT_ID   = 23087
ELEMENT_SET_NO = 999
REV_AT_EPOCH   = 64675
BSTAR          = -.99456E-4
MEAN_MOTION_DOT = -.238E-5
MEAN_MOTION_DDOT = 0

CCSDS_OMM_VERS = 2.0
CREATION_DATE  = 
ORIGINATOR     = 

OBJECT_NAME    = SL-16 R/B
OBJECT_ID      = 1994-023B
CENTER_NAME    = EARTH
REF_FRAME      = TEME
TIME_SYSTEM    = UTC
MEAN_ELEMENT_THEORY = SGP/SGP4

EPOCH          = 2026-03-23T06:54:22.569408
MEAN_MOTION    = 14.15011461
ECCENTRICITY   = .0005473
INCLINATION    = 71.0002
RA_OF_ASC_NODE = 42.3275
ARG_OF_PERICENTER = 272.5635
MEAN_ANOMALY   = 87.4861

EPHEMERIS_TYPE = 0
CLASSIFICATION_TYPE = U
NORAD_CAT_ID   = 23088
ELEMENT_SET_NO = 999
REV_AT_EPOCH   = 64801
BSTAR          = .13886E-3
MEAN_MOTION_DOT = .221E-5
MEAN_MOTION_DDOT = 0

CCSDS_OMM_VERS = 2.0
CREATION_DATE  = 
ORIGINATOR     = 

OBJECT_NAME    = SL-16 R/B
OBJECT_ID      = 1994-074B
CENTER_NAME    = EARTH
REF_FRAME      = TEME
TIME_SYSTEM    = UTC
MEAN_ELEMENT_THEORY = SGP/SGP4

EPOCH          = 2026-03-23T02:47:44.544192
MEAN_MOTION    = 14.79422951
ECCENTRICITY   = .00068564
INCLINATION    = 97.7091
RA_OF_ASC_NODE = 112.3896
ARG_OF_PERICENTER = 165.2976
MEAN_ANOMALY   = 249.7752

EPHEMERIS_TYPE = 0
CLASSIFICATION_TYPE = U
NORAD_CAT_ID   = 23343
ELEMENT_SET_NO = 999
REV_AT_EPOCH   = 68923
BSTAR          = .75612241E-4
MEAN_MOTION_DOT = .515E-5
MEAN_MOTION_DDOT = 0

CCSDS_OMM_VERS = 2.0
CREATION_DATE  = 
ORIGINATOR     = 

OBJECT_NAME    = SL-16 R/B
OBJECT_ID      = 1994-077B
CENTER_NAME    = EARTH
REF_FRAME      = TEME
TIME_SYSTEM    = UTC
MEAN_ELEMENT_THEORY = SGP/SGP4

EPOCH          = 2026-03-23T09:43:46.433856
MEAN_MOTION    = 14.15568152
ECCENTRICITY   = .0002289
INCLINATION    = 70.9844
RA_OF_ASC_NODE = 323.6357
ARG_OF_PERICENTER = 198.8104
MEAN_ANOMALY   = 161.2935

EPHEMERIS_TYPE = 0
CLASSIFICATION_TYPE = U
NORAD_CAT_ID   = 23405
ELEMENT_SET_NO = 999
REV_AT_EPOCH   = 61817
BSTAR          = .1201E-3
MEAN_MOTION_DOT = .187E-5
MEAN_MOTION_DDOT = 0

CCSDS_OMM_VERS = 2.0
CREATION_DATE  = 
ORIGINATOR     = 

OBJECT_NAME    = ARIANE 40+ R/B
OBJECT_ID      = 1995-021B
CENTER_NAME    = EARTH
REF_FRAME      = TEME
TIME_SYSTEM    = UTC
MEAN_ELEMENT_THEORY = SGP/SGP4

EPOCH          = 2026-03-23T10:16:31.670976
MEAN_MOTION    = 14.39781999
ECCENTRICITY   = .0007977
INCLINATION    = 98.4474
RA_OF_ASC_NODE = 153.7231
ARG_OF_PERICENTER = 100.9127
MEAN_ANOMALY   = 269.6472

EPHEMERIS_TYPE = 0
CLASSIFICATION_TYPE = U
NORAD_CAT_ID   = 23561
ELEMENT_SET_NO = 999
REV_AT_EPOCH   = 62122
BSTAR          = .11376E-3
MEAN_MOTION_DOT = .313E-5
MEAN_MOTION_DDOT = 0

CCSDS_OMM_VERS = 2.0
CREATION_DATE  = 
ORIGINATOR     = 

OBJECT_NAME    = SL-16 R/B
OBJECT_ID      = 1995-058B
CENTER_NAME    = EARTH
REF_FRAME      = TEME
TIME_SYSTEM    = UTC
MEAN_ELEMENT_THEORY = SGP/SGP4

EPOCH          = 2026-03-23T11:36:32.461056
MEAN_MOTION    = 14.15500701
ECCENTRICITY   = .0010152
INCLINATION    = 71.0217
RA_OF_ASC_NODE = 151.2972
ARG_OF_PERICENTER = 100.2633
MEAN_ANOMALY   = 259.9636

EPHEMERIS_TYPE = 0
CLASSIFICATION_TYPE = U
NORAD_CAT_ID   = 23705
ELEMENT_SET_NO = 999
REV_AT_EPOCH   = 56980
BSTAR          = -.39526E-4
MEAN_MOTION_DOT = -.125E-5
MEAN_MOTION_DDOT = 0

CCSDS_OMM_VERS = 2.0
CREATION_DATE  = 
ORIGINATOR     = 

OBJECT_NAME    = SL-16 R/B
OBJECT_ID      = 1996-051B
CENTER_NAME    = EARTH
REF_FRAME      = TEME
TIME_SYSTEM    = UTC
MEAN_ELEMENT_THEORY = SGP/SGP4

EPOCH          = 2026-03-23T09:49:45.373152
MEAN_MOTION    = 14.12419412
ECCENTRICITY   = .0013932
INCLINATION    = 70.7594
RA_OF_ASC_NODE = 146.2011
ARG_OF_PERICENTER = 126.2895
MEAN_ANOMALY   = 233.9513

EPHEMERIS_TYPE = 0
CLASSIFICATION_TYPE = U
NORAD_CAT_ID   = 24298
ELEMENT_SET_NO = 999
REV_AT_EPOCH   = 52358
BSTAR          = .78046E-4
MEAN_MOTION_DOT = .95E-6
MEAN_MOTION_DDOT = 0

CCSDS_OMM_VERS = 2.0
CREATION_DATE  = 
ORIGINATOR     = 

OBJECT_NAME    = ORBVIEW 2 (SEASTAR)
OBJECT_ID      = 1997-037A
CENTER_NAME    = EARTH
REF_FRAME      = TEME
TIME_SYSTEM    = UTC
MEAN_ELEMENT_THEORY = SGP/SGP4

EPOCH          = 2026-03-23T08:35:53.099808
MEAN_MOTION    = 14.35504192
ECCENTRICITY   = .0002654
INCLINATION    = 98.8591
RA_OF_ASC_NODE = 247.0339
ARG_OF_PERICENTER = 43.0722
MEAN_ANOMALY   = 317.0669

EPHEMERIS_TYPE = 0
CLASSIFICATION_TYPE = U
NORAD_CAT_ID   = 24883
ELEMENT_SET_NO = 999
REV_AT_EPOCH   = 51043
BSTAR          = .11602E-3
MEAN_MOTION_DOT = .287E-5
MEAN_MOTION_DDOT = 0

CCSDS_OMM_VERS = 2.0
CREATION_DATE  = 
ORIGINATOR     = 

OBJECT_NAME    = SL-16 R/B
OBJECT_ID      = 1998-043G
CENTER_NAME    = EARTH
REF_FRAME      = TEME
TIME_SYSTEM    = UTC
MEAN_ELEMENT_THEORY = SGP/SGP4

EPOCH          = 2026-03-23T08:14:18.428640
MEAN_MOTION    = 14.26052794
ECCENTRICITY   = .0009494
INCLINATION    = 98.8278
RA_OF_ASC_NODE = 35.8053
ARG_OF_PERICENTER = 341.1087
MEAN_ANOMALY   = 18.9739

EPHEMERIS_TYPE = 0
CLASSIFICATION_TYPE = U
NORAD_CAT_ID   = 25400
ELEMENT_SET_NO = 999
REV_AT_EPOCH   = 44093
BSTAR          = .50751E-4
MEAN_MOTION_DOT = .76E-6
MEAN_MOTION_DDOT = 0

